[Satellite]
VERSION=1.1
NAME=PERSEUS-M2
NICKNAME=PERSEUS-M2
TLE1=1 40037U 14033AD  20157.75182412  .00000070  00000-0  14165-4 0  9998
TLE2=2 40037  97.8893  74.1878 0014280 356.7805   3.3316 14.86542935322925
STATUS=0
